{"type": "FeatureCollection", "features": [ {"type": "Feature", "properties": {"norad_id": 35824, "name": "COSMOS 2251 DEB", "group": "cosmos-2251-debris", "lat": 10.428421309007755, "lon": 67.59597530858018, "alt_km": 1076.5042281679816, "timestamp": "2025-12-03T13:52:09.963593+00:00", "meta": {"OBJECT_NAME": "COSMOS 2251 DEB", "OBJECT_ID": "1993-036ASW", "EPOCH": "2025-12-02T23:58:49.006848", "MEAN_MOTION": 13.88354283, "ECCENTRICITY": 0.02502365, "INCLINATION": 73.8459, "RA_OF_ASC_NODE": 65.5324, "ARG_OF_PERICENTER": 153.3759, "MEAN_ANOMALY": 208.0477, "EPHEMERIS_TYPE": 0, "CLASSIFICATION_TYPE": "U", "NORAD_CAT_ID": 35824, "ELEMENT_SET_NO": 999, "REV_AT_EPOCH": 84092, "BSTAR": 0.0019032664, "MEAN_MOTION_DOT": 2.904e-05, "MEAN_MOTION_DDOT": 0}, "tle": {"line1": "1 35824U 93036ASW 25336.99917832  .00002904  00000+0  19033-2 0  9992", "line2": "2 35824  73.8459  65.5324 0250236 153.3759 208.0477 13.88354283840922"}}, "geometry": {"type": "Point", "coordinates": [67.59597530858018, 10.428421309007755]}}, {"type": "Feature", "properties": {"norad_id": 35825, "name": "COSMOS 2251 DEB", "group": "cosmos-2251-debris", "lat": -58.86950152423784, "lon": 5.84003169459603, "alt_km": 748.4333712052694, "timestamp": "2025-12-03T13:52:09.963604+00:00", "meta": {"OBJECT_NAME": "COSMOS 2251 DEB", "OBJECT_ID": "1993-036ASX", "EPOCH": "2025-11-18T20:38:01.180896", "MEAN_MOTION": 13.70825357, "ECCENTRICITY": 0.03535711, "INCLINATION": 74.1138, "RA_OF_ASC_NODE": 181.8907, "ARG_OF_PERICENTER": 283.1782, "MEAN_ANOMALY": 73.0118, "EPHEMERIS_TYPE": 0, "CLASSIFICATION_TYPE": "U", "NORAD_CAT_ID": 35825, "ELEMENT_SET_NO": 999, "REV_AT_EPOCH": 82181, "BSTAR": 0.0013809564, "MEAN_MOTION_DOT": 1.891e-05, "MEAN_MOTION_DDOT": 0}, "tle": {"line1": "1 35825U 93036ASX 25322.85973589  .00001891  00000+0  13810-2 0  9995", "line2": "2 35825  74.1138 181.8907 0353571 283.1782  73.0118 13.70825357821819"}}, "geometry": {"type": "Point", "coordinates": [5.84003169459603, -58.86950152423784]}}, {"type": "Feature", "properties": {"norad_id": 35829, "name": "COSMOS 2251 DEB", "group": "cosmos-2251-debris", "lat": -72.09014247883731, "lon": -0.8058138220591172, "alt_km": 648.8538455451053, "timestamp": "2025-12-03T13:52:09.963614+00:00", "meta": {"OBJECT_NAME": "COSMOS 2251 DEB", "OBJECT_ID": "1993-036ATB", "EPOCH": "2025-11-30T16:21:21.662208", "MEAN_MOTION": 14.75731719, "ECCENTRICITY": 0.00079875, "INCLINATION": 74.0228, "RA_OF_ASC_NODE": 122.4242, "ARG_OF_PERICENTER": 184.1441, "MEAN_ANOMALY": 175.9668, "EPHEMERIS_TYPE": 0, "CLASSIFICATION_TYPE": "U", "NORAD_CAT_ID": 35829, "ELEMENT_SET_NO": 999, "REV_AT_EPOCH": 87597, "BSTAR": 0.0025962161, "MEAN_MOTION_DOT": 0.00017791, "MEAN_MOTION_DDOT": 0}, "tle": {"line1": "1 35829U 93036ATB 25334.68150072  .00017791  00000+0  25962-2 0  9994", "line2": "2 35829  74.0228 122.4242 0007987 184.1441 175.9668 14.75731719875976"}}, "geometry": {"type": "Point", "coordinates": [-0.8058138220591172, -72.09014247883731]}}, {"type": "Feature", "properties": {"norad_id": 35830, "name": "COSMOS 2251 DEB", "group": "cosmos-2251-debris", "lat": 55.34669716126788, "lon": 78.34734199659786, "alt_km": 865.3637235348724, "timestamp": "2025-12-03T13:52:09.963625+00:00", "meta": {"OBJECT_NAME": "COSMOS 2251 DEB", "OBJECT_ID": "1993-036ATC", "EPOCH": "2025-12-03T04:51:39.093120", "MEAN_MOTION": 14.23892585, "ECCENTRICITY": 0.01232822, "INCLINATION": 73.8624, "RA_OF_ASC_NODE": 283.793, "ARG_OF_PERICENTER": 253.8519, "MEAN_ANOMALY": 104.9029, "EPHEMERIS_TYPE": 0, "CLASSIFICATION_TYPE": "U", "NORAD_CAT_ID": 35830, "ELEMENT_SET_NO": 999, "REV_AT_EPOCH": 61128, "BSTAR": 0.0012831324, "MEAN_MOTION_DOT": 3.154e-05, "MEAN_MOTION_DDOT": 0}, "tle": {"line1": "1 35830U 93036ATC 25337.20253580  .00003154  00000+0  12831-2 0  9994", "line2": "2 35830  73.8624 283.7930 0123282 253.8519 104.9029 14.23892585611284"}}, "geometry": {"type": "Point", "coordinates": [78.34734199659786, 55.34669716126788]}}, {"type": "Feature", "properties": {"norad_id": 35834, "name": "COSMOS 2251 DEB", "group": "cosmos-2251-debris", "lat": -36.55456429024905, "lon": -51.49421015666478, "alt_km": 929.8322111946954, "timestamp": "2025-12-03T13:52:09.963635+00:00", "meta": {"OBJECT_NAME": "COSMOS 2251 DEB", "OBJECT_ID": "1993-036ATG", "EPOCH": "2025-12-03T07:33:45.154944", "MEAN_MOTION": 14.1296634, "ECCENTRICITY": 0.01090757, "INCLINATION": 73.9308, "RA_OF_ASC_NODE": 321.313, "ARG_OF_PERICENTER": 123.7112, "MEAN_ANOMALY": 302.2893, "EPHEMERIS_TYPE": 0, "CLASSIFICATION_TYPE": "U", "NORAD_CAT_ID": 35834, "ELEMENT_SET_NO": 999, "REV_AT_EPOCH": 66130, "BSTAR": 0.00019157095, "MEAN_MOTION_DOT": 3.53e-06, "MEAN_MOTION_DDOT": 0}, "tle": {"line1": "1 35834U 93036ATG 25337.31510596  .00000353  00000+0  19157-3 0  9990", "line2": "2 35834  73.9308 321.3130 0109075 123.7112 302.2893 14.12966340661306"}}, "geometry": {"type": "Point", "coordinates": [-51.49421015666478, -36.55456429024905]}}, {"type": "Feature", "properties": {"norad_id": 35835, "name": "COSMOS 2251 DEB", "group": "cosmos-2251-debris", "lat": 5.753070880521823, "lon": 102.19357138519385, "alt_km": 1008.8978402425755, "timestamp": "2025-12-03T13:52:09.963645+00:00", "meta": {"OBJECT_NAME": "COSMOS 2251 DEB", "OBJECT_ID": "1993-036ATH", "EPOCH": "2025-11-23T15:11:23.439552", "MEAN_MOTION": 13.82767918, "ECCENTRICITY": 0.02888493, "INCLINATION": 74.0623, "RA_OF_ASC_NODE": 300.5555, "ARG_OF_PERICENTER": 86.7647, "MEAN_ANOMALY": 276.6477, "EPHEMERIS_TYPE": 0, "CLASSIFICATION_TYPE": "U", "NORAD_CAT_ID": 35835, "ELEMENT_SET_NO": 999, "REV_AT_EPOCH": 61435, "BSTAR": 0.00097699609, "MEAN_MOTION_DOT": 1.444e-05, "MEAN_MOTION_DDOT": 0}, "tle": {"line1": "1 35835U 93036ATH 25327.63291018  .00001444  00000+0  97700-3 0  9992", "line2": "2 35835  74.0623 300.5555 0288849  86.7647 276.6477 13.82767918614358"}}, "geometry": {"type": "Point", "coordinates": [102.19357138519385, 5.753070880521823]}}, {"type": "Feature", "properties": {"norad_id": 35836, "name": "COSMOS 2251 DEB", "group": "cosmos-2251-debris", "lat": 9.896557443233554, "lon": -166.41183075915322, "alt_km": 669.0410777863472, "timestamp": "2025-12-03T13:52:09.963656+00:00", "meta": {"OBJECT_NAME": "COSMOS 2251 DEB", "OBJECT_ID": "1993-036ATJ", "EPOCH": "2025-12-03T07:17:31.836480", "MEAN_MOTION": 14.70639126, "ECCENTRICITY": 0.00250014, "INCLINATION": 74.0318, "RA_OF_ASC_NODE": 191.2565, "ARG_OF_PERICENTER": 251.0331, "MEAN_ANOMALY": 108.8131, "EPHEMERIS_TYPE": 0, "CLASSIFICATION_TYPE": "U", "NORAD_CAT_ID": 35836, "ELEMENT_SET_NO": 999, "REV_AT_EPOCH": 63381, "BSTAR": 0.0020272238, "MEAN_MOTION_DOT": 0.00012386, "MEAN_MOTION_DDOT": 0}, "tle": {"line1": "1 35836U 93036ATJ 25337.30384070  .00012386  00000+0  20272-2 0  9995", "line2": "2 35836  74.0318 191.2565 0025001 251.0331 108.8131 14.70639126633814"}}, "geometry": {"type": "Point", "coordinates": [-166.41183075915322, 9.896557443233554]}}, {"type": "Feature", "properties": {"norad_id": 35837, "name": "COSMOS 2251 DEB", "group": "cosmos-2251-debris", "lat": -54.61877062476505, "lon": 67.16240987843327, "alt_km": 1032.9543514106408, "timestamp": "2025-12-03T13:52:09.963666+00:00", "meta": {"OBJECT_NAME": "COSMOS 2251 DEB", "OBJECT_ID": "1993-036ATK", "EPOCH": "2025-12-01T23:51:57.289248", "MEAN_MOTION": 13.6337538, "ECCENTRICITY": 0.04221684, "INCLINATION": 73.722, "RA_OF_ASC_NODE": 225.5014, "ARG_OF_PERICENTER": 147.9905, "MEAN_ANOMALY": 236.1342, "EPHEMERIS_TYPE": 0, "CLASSIFICATION_TYPE": "U", "NORAD_CAT_ID": 35837, "ELEMENT_SET_NO": 999, "REV_AT_EPOCH": 57830, "BSTAR": 0.0015598764, "MEAN_MOTION_DOT": 2.227e-05, "MEAN_MOTION_DDOT": 0}, "tle": {"line1": "1 35837U 93036ATK 25335.99441307  .00002227  00000+0  15599-2 0  9995", "line2": "2 35837  73.7220 225.5014 0422168 147.9905 236.1342 13.63375380578309"}}, "geometry": {"type": "Point", "coordinates": [67.16240987843327, -54.61877062476505]}}, {"type": "Feature", "properties": {"norad_id": 35839, "name": "COSMOS 2251 DEB", "group": "cosmos-2251-debris", "lat": -74.05871460136021, "lon": -114.58164943366828, "alt_km": 436.792498882337, "timestamp": "2025-12-03T13:52:09.963677+00:00", "meta": {"OBJECT_NAME": "COSMOS 2251 DEB", "OBJECT_ID": "1993-036ATM", "EPOCH": "2025-12-02T18:04:00.304320", "MEAN_MOTION": 15.45026888, "ECCENTRICITY": 0.00040607, "INCLINATION": 74.215, "RA_OF_ASC_NODE": 345.1466, "ARG_OF_PERICENTER": 349.3631, "MEAN_ANOMALY": 10.7494, "EPHEMERIS_TYPE": 0, "CLASSIFICATION_TYPE": "U", "NORAD_CAT_ID": 35839, "ELEMENT_SET_NO": 999, "REV_AT_EPOCH": 88413, "BSTAR": 0.0039662288, "MEAN_MOTION_DOT": 0.00191992, "MEAN_MOTION_DDOT": 0}, "tle": {"line1": "1 35839U 93036ATM 25336.75278130  .00191992  00000+0  39662-2 0  9999", "line2": "2 35839  74.2150 345.1466 0004060 349.3631  10.7494 15.45026888884133"}}, "geometry": {"type": "Point", "coordinates": [-114.58164943366828, -74.05871460136021]}}, {"type": "Feature", "properties": {"norad_id": 35840, "name": "COSMOS 2251 DEB", "group": "cosmos-2251-debris", "lat": 65.86102367467231, "lon": -44.87580895537906, "alt_km": 686.122565329777, "timestamp": "2025-12-03T13:52:09.963687+00:00", "meta": {"OBJECT_NAME": "COSMOS 2251 DEB", "OBJECT_ID": "1993-036ATN", "EPOCH": "2025-12-03T06:41:48.528096", "MEAN_MOTION": 14.37668767, "ECCENTRICITY": 0.01161773, "INCLINATION": 73.9299, "RA_OF_ASC_NODE": 175.711, "ARG_OF_PERICENTER": 80.5155, "MEAN_ANOMALY": 280.9106, "EPHEMERIS_TYPE": 0, "CLASSIFICATION_TYPE": "U", "NORAD_CAT_ID": 35840, "ELEMENT_SET_NO": 999, "REV_AT_EPOCH": 85155, "BSTAR": 0.0020520869, "MEAN_MOTION_DOT": 6.645e-05, "MEAN_MOTION_DDOT": 0}, "tle": {"line1": "1 35840U 93036ATN 25337.27903389  .00006645  00000+0  20521-2 0  9994", "line2": "2 35840  73.9299 175.7110 0116177  80.5155 280.9106 14.37668767851555"}}, "geometry": {"type": "Point", "coordinates": [-44.87580895537906, 65.86102367467231]}}]}